SIRION PATHFINDER-2     
1 43759U 18099B   26177.89355020  .00005302  00000+0  29027-3 0  9992
2 43759  97.4251 226.7201 0007120 263.5113  96.5308 15.14630174414090
CORVUS BC4              
1 43767U 18099K   26177.58253288  .00004420  00000+0  25694-3 0  9996
2 43767  97.4066 220.2876 0007261 339.9581  20.1364 15.12565566413828
M2 PATHFINDER           
1 45727U 20037E   26177.95543380  .00003141  00000+0  22728-3 0  9999
2 45727  97.8135   9.2964 0012574 118.0539 242.1960 15.04711384326960
NETSAT-4                
1 46504U 20068U   26177.97566076  .00018846  00000+0  41257-3 0  9992
2 46504  97.8599 187.0041 0003168 284.7568  75.3328 15.44180326317280
NETSAT-3                
1 46505U 20068V   26177.27604883  .00020517  00000+0  46733-3 0  9997
2 46505  97.8652 184.4532 0003131 318.1999  41.9007 15.42978668317080
NETSAT-1                
1 46506U 20068W   26177.98050588  .00012112  00000+0  36068-3 0  9995
2 46506  97.8742 179.4288 0003797 359.9684   0.1557 15.34858405316808
NETSAT-2                
1 46507U 20068X   26177.93722133  .00024635  00000+0  49911-3 0  9997
2 46507  97.8611 186.8936 0001966 349.6219  10.4988 15.46405479317245
GREENCUBE (IO-117)      
1 53109U 22080E   26177.67811985 -.00000003  00000+0  00000+0 0  9990
2 53109  70.1443 294.9444 0008984 287.5437  72.4241  6.42583228 92674
SITRO-AIS 5 (KATYS)     
1 57176U 23091L   26177.94849418  .00013071  00000+0  45604-3 0  9994
2 57176  97.5063 241.9413 0012386  73.1895 287.0703 15.29672589165839
SITRO-AIS 6 (CHIRKIN)   
1 57192U 23091AC  26177.95006058  .00010442  00000+0  40646-3 0  9998
2 57192  97.5070 241.0100 0012827  76.3332 283.9334 15.26114314165772
SITRO-AIS 8 (ANOKHIN)   
1 57193U 23091AD  26177.94834553  .00016252  00000+0  52065-3 0  9990
2 57193  97.5059 243.5698 0011323  69.5721 290.6736 15.32391441165940
SITRO-AIS 7 (FARTUSHNIY)
1 57194U 23091AE  26177.95521625  .00010190  00000+0  40052-3 0  9993
2 57194  97.5067 240.8351 0012738  77.2889 282.9772 15.25798441165765
SITRO-AIS 10 (BURDAEV)  
1 57199U 23091AK  26177.93854040  .00021074  00000+0  54731-3 0  9998
2 57199  97.5085 248.7155 0006702  50.0965 310.0868 15.38968415166266
SITRO-AIS 9 (SHCHUKIN)  
1 57201U 23091AM  26177.90303969  .00020815  00000+0  54947-3 0  9999
2 57201  97.5083 248.4014 0006962  50.4064 309.7794 15.38466444166247
SITRO-AIS 12 (SMIRENNIY)
1 57204U 23091AQ  26177.95683881  .00022001  00000+0  57508-3 0  9996
2 57204  97.5096 248.9297 0006456  44.8064 315.3701 15.38762957166279
SITRO-AIS 11 (SHEFFER)  
1 57208U 23091AU  26177.90252854  .00021283  00000+0  54876-3 0  9993
2 57208  97.5095 249.1268 0006334  44.8094 315.3662 15.39189973166280
SITRO-AIS 25            
1 59066U 24039R   26177.95688971  .00002307  00000+0  18206-3 0  9991
2 59066  95.3908 241.8062 0142584 294.1974  64.4404 14.93557456126184
SITRO-AIS 26            
1 59067U 24039S   26177.95959953  .00002259  00000+0  17916-3 0  9996
2 59067  95.3908 241.7037 0142941 294.7872  63.8540 14.93351621126175
SITRO-AIS 27            
1 59068U 24039T   26177.92710720  .00003187  00000+0  24943-3 0  9990
2 59068  95.3912 241.9575 0141857 293.4709  65.1659 14.93774088126194
SITRO-AIS 28            
1 59071U 24039U   26177.97131416  .00002756  00000+0  21588-3 0  9991
2 59071  95.3910 242.0357 0141867 293.1389  65.4940 14.93805842126209
GRBBETA                 
1 60237U 24128C   26177.57781919  .00003256  00000+0  22893-3 0  9997
2 60237  61.9878 183.3174 0039451 136.6258 223.7951 15.06690888107681
OOV-CUBE (TUBSAT-30)    
1 60240U 24128F   26177.30430608  .00001677  00000+0  13798-3 0  9997
2 60240  61.9924 193.7808 0043497 135.8027 224.6553 15.02804000107481
ROBUSTA-3A (MEDITERRAN*)
1 60243U 24128J   26177.32907742  .00005597  00000+0  33331-3 0  9990
2 60243  61.9842 175.9128 0040139 130.0414 230.4214 15.11754630107805
LASARSAT                
1 62391U 24247Q   26177.92276502  .00031146  00000+0  60896-3 0  9992
2 62391  44.9727 207.4845 0007157  30.4711 329.6594 15.46919148 84820
CROCUBE                 
1 62394U 24247T   26177.77950222  .00035343  00000+0  64439-3 0  9996
2 62394  44.9695 205.4645 0006927  34.5174 325.6166 15.48873131 84830
FORESAIL-1 PRIME        
1 66778U 25276DS  26177.94536779  .00005469  00000+0  26618-3 0  9998
2 66778  97.4202 251.0376 0003904  83.6091 276.5588 15.18785947 31883
KNACKSAT-2              
1 67683U 98067XZ  26177.44486485  .00049509  00000+0  58452-3 0  9999
2 67683  51.6280 247.8833 0008675 257.0459 102.9566 15.60782463 21720
