OBJECT_NAME,OBJECT_ID,EPOCH,MEAN_MOTION,ECCENTRICITY,INCLINATION,RA_OF_ASC_NODE,ARG_OF_PERICENTER,MEAN_ANOMALY,EPHEMERIS_TYPE,CLASSIFICATION_TYPE,NORAD_CAT_ID,ELEMENT_SET_NO,REV_AT_EPOCH,BSTAR,MEAN_MOTION_DOT,MEAN_MOTION_DDOT
SIRION PATHFINDER-2,2018-099B,2026-06-26T21:26:42.737280,15.14630174,.00071204,97.4251,226.7201,263.5113,96.5308,0,U,43759,999,41409,.29027338E-3,.5302E-4,0
CORVUS BC4,2018-099K,2026-06-26T13:58:50.840832,15.12565566,.0007261,97.4066,220.2876,339.9581,20.1364,0,U,43767,999,41382,.25694E-3,.442E-4,0
M2 PATHFINDER,2020-037E,2026-06-26T22:55:49.480320,15.04711384,.00125749,97.8135,9.2964,118.0539,242.1960,0,U,45727,999,32696,.22727778E-3,.3141E-4,0
NETSAT-4,2020-068U,2026-06-26T23:24:57.089664,15.44180326,.00031682,97.8599,187.0041,284.7568,75.3328,0,U,46504,999,31728,.41257236E-3,.18846E-3,0
NETSAT-3,2020-068V,2026-06-26T06:37:30.618912,15.42978668,.0003131,97.8652,184.4532,318.1999,41.9007,0,U,46505,999,31708,.46733E-3,.20517E-3,0
NETSAT-1,2020-068W,2026-06-26T23:31:55.708032,15.34858405,.0003797,97.8742,179.4288,359.9684,0.1557,0,U,46506,999,31680,.36068261E-3,.12112E-3,0
NETSAT-2,2020-068X,2026-06-26T22:29:35.922912,15.46405479,.00019663,97.8611,186.8936,349.6219,10.4988,0,U,46507,999,31724,.4991089E-3,.24635E-3,0
GREENCUBE (IO-117),2022-080E,2026-06-26T16:16:29.555040,6.42583228,.00089846,70.1443,294.9444,287.5437,72.4241,0,U,53109,999,9267,0,-.3E-7,0
SITRO-AIS 5 (KATYS),2023-091L,2026-06-26T22:45:49.897152,15.29672589,.00123865,97.5063,241.9413,73.1895,287.0703,0,U,57176,999,16583,.45603526E-3,.13071E-3,0
SITRO-AIS 6 (CHIRKIN),2023-091AC,2026-06-26T22:48:05.234112,15.26114314,.00128276,97.5070,241.0100,76.3332,283.9334,0,U,57192,999,16577,.4064589E-3,.10442E-3,0
SITRO-AIS 8 (ANOKHIN),2023-091AD,2026-06-26T22:45:37.053792,15.32391441,.00113231,97.5059,243.5698,69.5721,290.6736,0,U,57193,999,16594,.52064799E-3,.16252E-3,0
SITRO-AIS 7 (FARTUSHNIY),2023-091AE,2026-06-26T22:55:30.684000,15.25798441,.00127381,97.5067,240.8351,77.2889,282.9772,0,U,57194,999,16576,.40051823E-3,.1019E-3,0
SITRO-AIS 10 (BURDAEV),2023-091AK,2026-06-26T22:31:29.890560,15.38968415,.00067027,97.5085,248.7155,50.0965,310.0868,0,U,57199,999,16626,.54730827E-3,.21074E-3,0
SITRO-AIS 9 (SHCHUKIN),2023-091AM,2026-06-26T21:40:22.629216,15.38466444,.00069629,97.5083,248.4014,50.4064,309.7794,0,U,57201,999,16624,.54946898E-3,.20815E-3,0
SITRO-AIS 12 (SMIRENNIY),2023-091AQ,2026-06-26T22:57:50.873184,15.38762957,.00064562,97.5096,248.9297,44.8064,315.3701,0,U,57204,999,16627,.57507803E-3,.22001E-3,0
SITRO-AIS 11 (SHEFFER),2023-091AU,2026-06-26T21:39:38.465856,15.39189973,.00063343,97.5095,249.1268,44.8094,315.3662,0,U,57208,999,16628,.54875517E-3,.21283E-3,0
SITRO-AIS 25,2024-039R,2026-06-26T22:57:55.270944,14.93557456,.01425848,95.3908,241.8062,294.1974,64.4404,0,U,59066,999,12618,.18205703E-3,.2307E-4,0
SITRO-AIS 26,2024-039S,2026-06-26T23:01:49.399392,14.93351621,.0142941,95.3908,241.7037,294.7872,63.8540,0,U,59067,999,12617,.17915897E-3,.2259E-4,0
SITRO-AIS 27,2024-039T,2026-06-26T22:15:02.062080,14.93774088,.01418578,95.3912,241.9575,293.4709,65.1659,0,U,59068,999,12619,.24942668E-3,.3187E-4,0
SITRO-AIS 28,2024-039U,2026-06-26T23:18:41.543424,14.93805842,.01418674,95.3910,242.0357,293.1389,65.4940,0,U,59071,999,12620,.215885E-3,.2756E-4,0
GRBBETA,2024-128C,2026-06-26T13:52:03.578016,15.06690888,.00394513,61.9878,183.3174,136.6258,223.7951,0,U,60237,999,10768,.22892756E-3,.3256E-4,0
OOV-CUBE (TUBSAT-30),2024-128F,2026-06-26T07:18:12.045312,15.02804000,.00434971,61.9924,193.7808,135.8027,224.6553,0,U,60240,999,10748,.13798353E-3,.1677E-4,0
ROBUSTA-3A (MEDITERRANEE),2024-128J,2026-06-26T07:53:52.289088,15.11754630,.0040139,61.9842,175.9128,130.0414,230.4214,0,U,60243,999,10780,.33331E-3,.5597E-4,0
LASARSAT,2024-247Q,2026-06-26T22:08:46.897728,15.46919148,.00071575,44.9727,207.4845,30.4711,329.6594,0,U,62391,999,8482,.60896199E-3,.31146E-3,0
CROCUBE,2024-247T,2026-06-26T18:42:28.991808,15.48873131,.00069271,44.9695,205.4645,34.5174,325.6166,0,U,62394,999,8483,.64439449E-3,.35343E-3,0
FORESAIL-1 PRIME,2025-276DS,2026-06-26T22:41:19.777056,15.18785947,.00039049,97.4202,251.0376,83.6091,276.5588,0,U,66778,999,3188,.26617877E-3,.5469E-4,0
KNACKSAT-2,1998-067XZ,2026-06-26T10:40:36.323040,15.60782463,.0008675,51.6280,247.8833,257.0459,102.9566,0,U,67683,999,2172,.58452E-3,.49509E-3,0
